{"type": "FeatureCollection", "features": [ {"type": "Feature", "properties": {"norad_id": 40701, "name": "GAOFEN-8", "group": "resource", "lat": 26.254704951319574, "lon": 168.52868903762362, "alt_km": 448.5473588878476, "timestamp": "2025-12-19T20:42:59.738364+00:00", "meta": {"OBJECT_NAME": "GAOFEN-8", "OBJECT_ID": "2015-030A", "EPOCH": "2025-12-19T06:33:19.132704", "MEAN_MOTION": 15.38752377, "ECCENTRICITY": 0.00119382, "INCLINATION": 97.6902, "RA_OF_ASC_NODE": 171.7316, "ARG_OF_PERICENTER": 116.0338, "MEAN_ANOMALY": 244.2137, "EPHEMERIS_TYPE": 0, "CLASSIFICATION_TYPE": "U", "NORAD_CAT_ID": 40701, "ELEMENT_SET_NO": 999, "REV_AT_EPOCH": 58371, "BSTAR": 0.00019749267, "MEAN_MOTION_DOT": 7.492e-05, "MEAN_MOTION_DDOT": 0}, "tle": {"line1": "1 40701U 15030A   25353.27313811  .00007492  00000+0  19749-3 0  9999", "line2": "2 40701  97.6902 171.7316 0011938 116.0338 244.2137 15.38752377583712"}}, "geometry": {"type": "Point", "coordinates": [168.52868903762362, 26.254704951319574]}}, {"type": "Feature", "properties": {"norad_id": 40718, "name": "CARBONITE 1 (CBNT-1)", "group": "resource", "lat": -33.189301346290364, "lon": 179.6292689961713, "alt_km": 637.0074939902779, "timestamp": "2025-12-19T20:42:59.738375+00:00", "meta": {"OBJECT_NAME": "CARBONITE 1 (CBNT-1)", "OBJECT_ID": "2015-032D", "EPOCH": "2025-12-19T07:54:40.476960", "MEAN_MOTION": 14.82773156, "ECCENTRICITY": 0.0014938, "INCLINATION": 97.6394, "RA_OF_ASC_NODE": 174.0827, "ARG_OF_PERICENTER": 159.962, "MEAN_ANOMALY": 200.2184, "EPHEMERIS_TYPE": 0, "CLASSIFICATION_TYPE": "U", "NORAD_CAT_ID": 40718, "ELEMENT_SET_NO": 999, "REV_AT_EPOCH": 56268, "BSTAR": 0.00023727432, "MEAN_MOTION_DOT": 1.871e-05, "MEAN_MOTION_DDOT": 0}, "tle": {"line1": "1 40718U 15032D   25353.32963515  .00001871  00000+0  23727-3 0  9993", "line2": "2 40718  97.6394 174.0827 0014938 159.9620 200.2184 14.82773156562684"}}, "geometry": {"type": "Point", "coordinates": [179.6292689961713, -33.189301346290364]}}, {"type": "Feature", "properties": {"norad_id": 40878, "name": "YAOGAN-27", "group": "resource", "lat": 73.4286700741639, "lon": -53.63657944030393, "alt_km": 1198.2860964433694, "timestamp": "2025-12-19T20:42:59.738385+00:00", "meta": {"OBJECT_NAME": "YAOGAN-27", "OBJECT_ID": "2015-040A", "EPOCH": "2025-12-19T05:43:53.045760", "MEAN_MOTION": 13.16062299, "ECCENTRICITY": 0.00075732, "INCLINATION": 100.1006, "RA_OF_ASC_NODE": 342.565, "ARG_OF_PERICENTER": 270.9228, "MEAN_ANOMALY": 89.1018, "EPHEMERIS_TYPE": 0, "CLASSIFICATION_TYPE": "U", "NORAD_CAT_ID": 40878, "ELEMENT_SET_NO": 999, "REV_AT_EPOCH": 49399, "BSTAR": 0.00067206325, "MEAN_MOTION_DOT": 2.13e-06, "MEAN_MOTION_DDOT": 0}, "tle": {"line1": "1 40878U 15040A   25353.23880840  .00000213  00000+0  67206-3 0  9997", "line2": "2 40878 100.1006 342.5650 0007573 270.9228  89.1018 13.16062299493994"}}, "geometry": {"type": "Point", "coordinates": [-53.63657944030393, 73.4286700741639]}}, {"type": "Feature", "properties": {"norad_id": 40894, "name": "GAOFEN-9 01", "group": "resource", "lat": -57.91338601986748, "lon": -159.8736396376546, "alt_km": 641.969277925542, "timestamp": "2025-12-19T20:42:59.738395+00:00", "meta": {"OBJECT_NAME": "GAOFEN-9 01", "OBJECT_ID": "2015-047A", "EPOCH": "2025-12-19T08:18:09.890784", "MEAN_MOTION": 14.82437691, "ECCENTRICITY": 0.00278685, "INCLINATION": 97.6534, "RA_OF_ASC_NODE": 32.016, "ARG_OF_PERICENTER": 13.1158, "MEAN_ANOMALY": 347.0775, "EPHEMERIS_TYPE": 0, "CLASSIFICATION_TYPE": "U", "NORAD_CAT_ID": 40894, "ELEMENT_SET_NO": 999, "REV_AT_EPOCH": 55354, "BSTAR": 0.00010876404, "MEAN_MOTION_DOT": 8.26e-06, "MEAN_MOTION_DDOT": 0}, "tle": {"line1": "1 40894U 15047A   25353.34594781  .00000826  00000+0  10876-3 0  9991", "line2": "2 40894  97.6534  32.0160 0027868  13.1158 347.0775 14.82437691553543"}}, "geometry": {"type": "Point", "coordinates": [-159.8736396376546, -57.91338601986748]}}, {"type": "Feature", "properties": {"norad_id": 41026, "name": "YAOGAN-28", "group": "resource", "lat": 24.642467749752395, "lon": 128.0923097356661, "alt_km": 490.04265096101335, "timestamp": "2025-12-19T20:42:59.738406+00:00", "meta": {"OBJECT_NAME": "YAOGAN-28", "OBJECT_ID": "2015-064A", "EPOCH": "2025-12-19T08:00:18.542880", "MEAN_MOTION": 15.24456025, "ECCENTRICITY": 0.00126114, "INCLINATION": 97.2809, "RA_OF_ASC_NODE": 130.94, "ARG_OF_PERICENTER": 105.0417, "MEAN_ANOMALY": 255.2218, "EPHEMERIS_TYPE": 0, "CLASSIFICATION_TYPE": "U", "NORAD_CAT_ID": 41026, "ELEMENT_SET_NO": 999, "REV_AT_EPOCH": 56325, "BSTAR": 0.00025678886, "MEAN_MOTION_DOT": 6.249e-05, "MEAN_MOTION_DDOT": 0}, "tle": {"line1": "1 41026U 15064A   25353.33354795  .00006249  00000+0  25679-3 0  9998", "line2": "2 41026  97.2809 130.9400 0012611 105.0417 255.2218 15.24456025563256"}}, "geometry": {"type": "Point", "coordinates": [128.0923097356661, 24.642467749752395]}}, {"type": "Feature", "properties": {"norad_id": 41038, "name": "YAOGAN-29", "group": "resource", "lat": 40.81416887335202, "lon": -155.94678773634416, "alt_km": 616.7899810278204, "timestamp": "2025-12-19T20:42:59.738416+00:00", "meta": {"OBJECT_NAME": "YAOGAN-29", "OBJECT_ID": "2015-069A", "EPOCH": "2025-12-19T07:08:16.872864", "MEAN_MOTION": 14.82889951, "ECCENTRICITY": 4.298e-05, "INCLINATION": 98.0213, "RA_OF_ASC_NODE": 16.4907, "ARG_OF_PERICENTER": 184.8804, "MEAN_ANOMALY": 175.2405, "EPHEMERIS_TYPE": 0, "CLASSIFICATION_TYPE": "U", "NORAD_CAT_ID": 41038, "ELEMENT_SET_NO": 999, "REV_AT_EPOCH": 54396, "BSTAR": 8.1504967e-05, "MEAN_MOTION_DOT": 6.06e-06, "MEAN_MOTION_DDOT": 0}, "tle": {"line1": "1 41038U 15069A   25353.29741751  .00000606  00000+0  81505-4 0  9995", "line2": "2 41038  98.0213  16.4907 0000429 184.8804 175.2405 14.82889951543962"}}, "geometry": {"type": "Point", "coordinates": [-155.94678773634416, 40.81416887335202]}}, {"type": "Feature", "properties": {"norad_id": 41167, "name": "KENT RIDGE 1", "group": "resource", "lat": 12.80152734669931, "lon": -143.51218700573568, "alt_km": 501.9699478282355, "timestamp": "2025-12-19T20:42:59.738427+00:00", "meta": {"OBJECT_NAME": "KENT RIDGE 1", "OBJECT_ID": "2015-077B", "EPOCH": "2025-12-19T03:09:12.310272", "MEAN_MOTION": 15.21684319, "ECCENTRICITY": 0.00085071, "INCLINATION": 14.9781, "RA_OF_ASC_NODE": 163.711, "ARG_OF_PERICENTER": 221.3147, "MEAN_ANOMALY": 138.6531, "EPHEMERIS_TYPE": 0, "CLASSIFICATION_TYPE": "U", "NORAD_CAT_ID": 41167, "ELEMENT_SET_NO": 999, "REV_AT_EPOCH": 55361, "BSTAR": 0.00013527237, "MEAN_MOTION_DOT": 3.907e-05, "MEAN_MOTION_DDOT": 0}, "tle": {"line1": "1 41167U 15077B   25353.13139248  .00003907  00000+0  13527-3 0  9997", "line2": "2 41167  14.9781 163.7110 0008507 221.3147 138.6531 15.21684319553617"}}, "geometry": {"type": "Point", "coordinates": [-143.51218700573568, 12.80152734669931]}}, {"type": "Feature", "properties": {"norad_id": 41194, "name": "GAOFEN-4", "group": "resource", "lat": 0.17948977719738263, "lon": 145.14219793538592, "alt_km": 35775.091033367404, "timestamp": "2025-12-19T20:42:59.738441+00:00", "meta": {"OBJECT_NAME": "GAOFEN-4", "OBJECT_ID": "2015-083A", "EPOCH": "2025-12-19T06:55:04.393056", "MEAN_MOTION": 1.00273341, "ECCENTRICITY": 0.00029276, "INCLINATION": 0.1869, "RA_OF_ASC_NODE": 81.7775, "ARG_OF_PERICENTER": 93.5117, "MEAN_ANOMALY": 122.3296, "EPHEMERIS_TYPE": 0, "CLASSIFICATION_TYPE": "U", "NORAD_CAT_ID": 41194, "ELEMENT_SET_NO": 999, "REV_AT_EPOCH": 3672, "BSTAR": 0, "MEAN_MOTION_DOT": -3.1e-06, "MEAN_MOTION_DDOT": 0}, "tle": {"line1": "1 41194U 15083A   25353.28824529 -.00000310  00000+0  00000+0 0  9997", "line2": "2 41194   0.1869  81.7775 0002927  93.5117 122.3296  1.00273341 36720"}}, "geometry": {"type": "Point", "coordinates": [145.14219793538592, 0.17948977719738263]}}, {"type": "Feature", "properties": {"norad_id": 41240, "name": "JASON-3", "group": "resource", "lat": -26.012993285034362, "lon": -24.619457166540627, "alt_km": 1313.0298524419895, "timestamp": "2025-12-19T20:42:59.738452+00:00", "meta": {"OBJECT_NAME": "JASON-3", "OBJECT_ID": "2016-002A", "EPOCH": "2025-12-19T06:35:15.675072", "MEAN_MOTION": 12.87626863, "ECCENTRICITY": 0.00072062, "INCLINATION": 66.0398, "RA_OF_ASC_NODE": 144.0855, "ARG_OF_PERICENTER": 271.2132, "MEAN_ANOMALY": 88.8061, "EPHEMERIS_TYPE": 0, "CLASSIFICATION_TYPE": "U", "NORAD_CAT_ID": 41240, "ELEMENT_SET_NO": 999, "REV_AT_EPOCH": 46408, "BSTAR": 3.9979306e-05, "MEAN_MOTION_DOT": -5.2e-07, "MEAN_MOTION_DDOT": 0}, "tle": {"line1": "1 41240U 16002A   25353.27448698 -.00000052  00000+0  39979-4 0  9994", "line2": "2 41240  66.0398 144.0855 0007206 271.2132  88.8061 12.87626863464087"}}, "geometry": {"type": "Point", "coordinates": [-24.619457166540627, -26.012993285034362]}}, {"type": "Feature", "properties": {"norad_id": 41335, "name": "SENTINEL-3A", "group": "resource", "lat": -20.002659221398847, "lon": -124.39330540454395, "alt_km": 808.0057141586649, "timestamp": "2025-12-19T20:42:59.738462+00:00", "meta": {"OBJECT_NAME": "SENTINEL-3A", "OBJECT_ID": "2016-011A", "EPOCH": "2025-12-19T06:18:59.793120", "MEAN_MOTION": 14.26733106, "ECCENTRICITY": 9.115e-05, "INCLINATION": 98.6307, "RA_OF_ASC_NODE": 58.1845, "ARG_OF_PERICENTER": 93.4063, "MEAN_ANOMALY": 266.7222, "EPHEMERIS_TYPE": 0, "CLASSIFICATION_TYPE": "U", "NORAD_CAT_ID": 41335, "ELEMENT_SET_NO": 999, "REV_AT_EPOCH": 51240, "BSTAR": 6.2359976e-05, "MEAN_MOTION_DOT": 1.07e-06, "MEAN_MOTION_DDOT": 0}, "tle": {"line1": "1 41335U 16011A   25353.26319205  .00000107  00000+0  62360-4 0  9999", "line2": "2 41335  98.6307  58.1845 0000911  93.4063 266.7222 14.26733106512400"}}, "geometry": {"type": "Point", "coordinates": [-124.39330540454395, -20.002659221398847]}}]}